{
  "type": "FeatureCollection",
  "features": [
    {
      "type": "Feature",
      "properties": {
        "İlçe": "Derebucak",
        "Sıra": "10",
        "Açıklama": "Alfabetik Konya CBS Veri Tabanı İndeksi - Derebucak İlçe Sınır Poligonu",
        "fill": "#ffe6e6",
        "fill-opacity": 0.25,
        "stroke": "#cc6666",
        "stroke-width": 3
      },
      "geometry": {
        "type": "Polygon",
        "coordinates": [
          [
            [31.40, 37.30],
            [31.65, 37.45],
            [31.75, 37.35],
            [31.50, 37.20],
            [31.40, 37.30]
          ]
        ]
      }
    },
    {
      "type": "Feature",
      "properties": {
        "Nokta Adı": "Çamlık Mağaraları CBS İstasyonu",
        "Açıklama": "Derebucak Jeomorfolojik Veri Toplama Lokasyonu"
      },
      "geometry": {
        "type": "Point",
        "coordinates": [31.4928, 37.3639]
      }
    }
  ]
}
