{
  "type": "FeatureCollection",
  "features": [
    {
      "type": "Feature",
      "properties": {
        "Nokta Adı": "Konya Büyükşehir",
        "Açıklama": "CBS Çalışma Alanı Merkez Noktası"
      },
      "geometry": {
        "type": "Point",
        "coordinates": [32.4833, 37.8714]
      }
    },
    {
      "type": "Feature",
      "properties": {
        "Nokta Adı": "Karatay İlçesi",
        "Açıklama": "Detaylı CBS Analiz ve Detay Çalışma Bölgesi"
      },
      "geometry": {
        "type": "Point",
        "coordinates": [32.5312, 37.8680]
      }
    }
  ]
}

